[
    {
        "Altitude(m)": 703071.2085918504,
        "Argument of Periapsis(deg)": 0.011390121186627068,
        "Eccentricity": 0.0,
        "Inclination(deg)": 45.0,
        "Latitude(deg)": 3.3647426805775935,
        "Longitude(deg)": -79.12639346945473,
        "Mean Anomaly(deg)": -184.8303833525191,
        "RAAN(deg)": 204.9892480585418,
        "Satellite Name": "Constellation 1 912",
        "Satellite Number": 912,
        "Semi-Major Axis(m)": 7083131.272910544,
        "Time(s)": 190
    },
    {
        "Altitude(m)": 703075.2052868725,
        "Argument of Periapsis(deg)": 0.011450069192872472,
        "Eccentricity": 0.0,
        "Inclination(deg)": 45.0,
        "Latitude(deg)": 3.321596565357413,
        "Longitude(deg)": -79.08749457703934,
        "Mean Anomaly(deg)": -184.76968221226926,
        "RAAN(deg)": 204.98919146937624,
        "Satellite Name": "Constellation 1 912",
        "Satellite Number": 912,
        "Semi-Major Axis(m)": 7083131.272910544,
        "Time(s)": 191
    },
    {
        "Altitude(m)": 703079.2228372128,
        "Argument of Periapsis(deg)": 0.01151001719911788,
        "Eccentricity": 0.0,
        "Inclination(deg)": 45.0,
        "Latitude(deg)": 3.2784485935720364,
        "Longitude(deg)": -79.04859947611526,
        "Mean Anomaly(deg)": -184.70898107201938,
        "RAAN(deg)": 204.98913488021063,
        "Satellite Name": "Constellation 1 912",
        "Satellite Number": 912,
        "Semi-Major Axis(m)": 7083131.272910544,
        "Time(s)": 192
    },
    {
        "Altitude(m)": 703083.2612436267,
        "Argument of Periapsis(deg)": 0.011569965205363285,
        "Eccentricity": 0.0,
        "Inclination(deg)": 45.0,
        "Latitude(deg)": 3.2352987904469646,
        "Longitude(deg)": -79.00970828613748,
        "Mean Anomaly(deg)": -184.64827993176945,
        "RAAN(deg)": 204.98907829104508,
        "Satellite Name": "Constellation 1 912",
        "Satellite Number": 912,
        "Semi-Major Axis(m)": 7083131.272910544,
        "Time(s)": 193
    },
    {
        "Altitude(m)": 703087.3205067533,
        "Argument of Periapsis(deg)": 0.01162991321160869,
        "Eccentricity": 0.0,
        "Inclination(deg)": 45.0,
        "Latitude(deg)": 3.192147181200857,
        "Longitude(deg)": -78.97082062227881,
        "Mean Anomaly(deg)": -184.58757879151955,
        "RAAN(deg)": 204.9890217018795,
        "Satellite Name": "Constellation 1 912",
        "Satellite Number": 912,
        "Semi-Major Axis(m)": 7083131.272910544,
        "Time(s)": 194
    },
    {
        "Altitude(m)": 703091.4006271596,
        "Argument of Periapsis(deg)": 0.011689861217854095,
        "Eccentricity": 0.0,
        "Inclination(deg)": 45.0,
        "Latitude(deg)": 3.148993791044714,
        "Longitude(deg)": -78.93193660401113,
        "Mean Anomaly(deg)": -184.5268776512697,
        "RAAN(deg)": 204.98896511271394,
        "Satellite Name": "Constellation 1 912",
        "Satellite Number": 912,
        "Semi-Major Axis(m)": 7083131.272910544,
        "Time(s)": 195
    },
    {
        "Altitude(m)": 703095.5016053014,
        "Argument of Periapsis(deg)": 0.0117498092240995,
        "Eccentricity": 0.0,
        "Inclination(deg)": 45.0,
        "Latitude(deg)": 3.1058386451827187,
        "Longitude(deg)": -78.89305618271783,
        "Mean Anomaly(deg)": -184.46617651101977,
        "RAAN(deg)": 204.98890852354833,
        "Satellite Name": "Constellation 1 912",
        "Satellite Number": 912,
        "Semi-Major Axis(m)": 7083131.272910544,
        "Time(s)": 196
    },
    {
        "Altitude(m)": 703099.6234415531,
        "Argument of Periapsis(deg)": 0.011809757230344905,
        "Eccentricity": 0.0,
        "Inclination(deg)": 45.0,
        "Latitude(deg)": 3.062681768812275,
        "Longitude(deg)": -78.85417930979068,
        "Mean Anomaly(deg)": -184.40547537076992,
        "RAAN(deg)": 204.98885193438278,
        "Satellite Name": "Constellation 1 912",
        "Satellite Number": 912,
        "Semi-Major Axis(m)": 7083131.272910544,
        "Time(s)": 197
    },
    {
        "Altitude(m)": 703103.7661361939,
        "Argument of Periapsis(deg)": 0.011869705236590313,
        "Eccentricity": 0.0,
        "Inclination(deg)": 45.0,
        "Latitude(deg)": 3.0195231871235166,
        "Longitude(deg)": -78.81530593662917,
        "Mean Anomaly(deg)": -184.34477423051993,
        "RAAN(deg)": 204.98879534521723,
        "Satellite Name": "Constellation 1 912",
        "Satellite Number": 912,
        "Semi-Major Axis(m)": 7083131.272910544,
        "Time(s)": 198
    },
    {
        "Altitude(m)": 703107.9296894078,
        "Argument of Periapsis(deg)": 0.011929653242835719,
        "Eccentricity": 0.0,
        "Inclination(deg)": 45.0,
        "Latitude(deg)": 2.9763629253001924,
        "Longitude(deg)": -78.77643601464125,
        "Mean Anomaly(deg)": -184.28407309027008,
        "RAAN(deg)": 204.98873875605165,
        "Satellite Name": "Constellation 1 912",
        "Satellite Number": 912,
        "Semi-Major Axis(m)": 7083131.272910544,
        "Time(s)": 199
    }
]